start=new Date('2022-09-07T00:00:00.000Z').valueOf();
sats=[{"OBJECT_NAME":"STARLINK-4445","ECCENTRICITY":"0.00019720","MEAN_MOTION":"15.49796811","ELEMENT_SET_NO":"999","SEMIMAJOR_AXIS":"6795.457","TIME_SYSTEM":"UTC","INCLINATION":"97.6555","NORAD_CAT_ID":"53474","MEAN_ELEMENT_THEORY":"SGP4","TLE_LINE2":"2 53474  97.6555   9.3144 0001972  67.9681 110.7209 15.49796811  1304","LAUNCH_DATE":"2022-08-12","EPOCH":"2022-09-06T22:00:00.999936","APOAPSIS":"418.662","RA_OF_ASC_NODE":"9.3144","MEAN_MOTION_DDOT":"0.0000000000000","CENTER_NAME":"EARTH","SITE":"AFWTR","PERIOD":"92.915","REV_AT_EPOCH":"130","ARG_OF_PERICENTER":"67.9681","TLE_LINE1":"1 53474U 22099K   22249.91667824 -.01286479  00000-0 -25566-1 0  9991","PERIAPSIS":"415.982","OBJECT_TYPE":"PAYLOAD","COUNTRY_CODE":"US","CLASSIFICATION_TYPE":"U","FILE":"3561419","RCS_SIZE":"LARGE","BSTAR":"-0.02556600000000","GP_ID":"211923887","EPHEMERIS_TYPE":"0","MEAN_ANOMALY":"110.7209","REF_FRAME":"TEME","DECAY_DATE":null,"OBJECT_ID":"2022-099K","MEAN_MOTION_DOT":"-0.01286479"},{"REF_FRAME":"TEME","DECAY_DATE":null,"MEAN_MOTION_DOT":"-0.01328825","OBJECT_ID":"2022-099L","GP_ID":"211924401","BSTAR":"-0.02674200000000","EPHEMERIS_TYPE":"0","MEAN_ANOMALY":"106.4668","FILE":"3561419","CLASSIFICATION_TYPE":"U","RCS_SIZE":"LARGE","PERIAPSIS":"416.684","TLE_LINE1":"1 53475U 22099L   22249.91667824 -.01328825  00000-0 -26742-1 0  9991","OBJECT_TYPE":"PAYLOAD","COUNTRY_CODE":"US","RA_OF_ASC_NODE":"9.3169","MEAN_MOTION_DDOT":"0.0000000000000","REV_AT_EPOCH":"130","ARG_OF_PERICENTER":"68.9761","SITE":"AFWTR","PERIOD":"92.931","CENTER_NAME":"EARTH","TLE_LINE2":"2 53475  97.6557   9.3169 0002064  68.9761 106.4668 15.49535266  1303","EPOCH":"2022-09-06T22:00:00.999936","LAUNCH_DATE":"2022-08-12","APOAPSIS":"419.489","ELEMENT_SET_NO":"999","SEMIMAJOR_AXIS":"6796.222","TIME_SYSTEM":"UTC","NORAD_CAT_ID":"53475","MEAN_ELEMENT_THEORY":"SGP4","INCLINATION":"97.6557","OBJECT_NAME":"STARLINK-4389","MEAN_MOTION":"15.49535266","ECCENTRICITY":"0.00020640"},{"MEAN_MOTION_DDOT":"0.0000000000000","SITE":"AFWTR","PERIOD":"92.962","CENTER_NAME":"EARTH","ARG_OF_PERICENTER":"70.8924","REV_AT_EPOCH":"130","RA_OF_ASC_NODE":"9.3180","APOAPSIS":"420.975","TLE_LINE2":"2 53476  97.6558   9.3180 0002025  70.8924 100.3369 15.49018309  1303","EPOCH":"2022-09-06T22:00:00.999936","LAUNCH_DATE":"2022-08-12","INCLINATION":"97.6558","MEAN_ELEMENT_THEORY":"SGP4","NORAD_CAT_ID":"53476","SEMIMAJOR_AXIS":"6797.734","ELEMENT_SET_NO":"999","TIME_SYSTEM":"UTC","ECCENTRICITY":"0.00020250","MEAN_MOTION":"15.49018309","OBJECT_NAME":"STARLINK-4378","DECAY_DATE":null,"OBJECT_ID":"2022-099M","MEAN_MOTION_DOT":"-0.01337616","REF_FRAME":"TEME","MEAN_ANOMALY":"100.3369","BSTAR":"-0.02743400000000","GP_ID":"211924041","EPHEMERIS_TYPE":"0","CLASSIFICATION_TYPE":"U","FILE":"3561419","RCS_SIZE":"LARGE","COUNTRY_CODE":"US","TLE_LINE1":"1 53476U 22099M   22249.91667824 -.01337616  00000-0 -27434-1 0  9999","PERIAPSIS":"418.222","OBJECT_TYPE":"PAYLOAD"},{"MEAN_ELEMENT_THEORY":"SGP4","NORAD_CAT_ID":"53477","INCLINATION":"97.6556","TIME_SYSTEM":"UTC","SEMIMAJOR_AXIS":"6795.956","ELEMENT_SET_NO":"999","MEAN_MOTION":"15.49626068","ECCENTRICITY":"0.00018950","OBJECT_NAME":"STARLINK-4412","REV_AT_EPOCH":"130","ARG_OF_PERICENTER":"69.6890","SITE":"AFWTR","PERIOD":"92.926","CENTER_NAME":"EARTH","MEAN_MOTION_DDOT":"0.0000000000000","RA_OF_ASC_NODE":"9.3152","APOAPSIS":"419.109","LAUNCH_DATE":"2022-08-12","EPOCH":"2022-09-06T22:00:00.999936","TLE_LINE2":"2 53477  97.6556   9.3152 0001895  69.6890 107.7071 15.49626068  1301","RCS_SIZE":"LARGE","FILE":"3561419","CLASSIFICATION_TYPE":"U","COUNTRY_CODE":"US","OBJECT_TYPE":"PAYLOAD","PERIAPSIS":"416.533","TLE_LINE1":"1 53477U 22099N   22249.91667824 -.01293804  00000-0 -25883-1 0  9996","MEAN_MOTION_DOT":"-0.01293804","OBJECT_ID":"2022-099N","DECAY_DATE":null,"REF_FRAME":"TEME","MEAN_ANOMALY":"107.7071","EPHEMERIS_TYPE":"0","GP_ID":"211924556","BSTAR":"-0.02588300000000"},{"OBJECT_TYPE":"PAYLOAD","TLE_LINE1":"1 53478U 22099P   22249.91667824 -.01378249  00000-0 -28251-1 0  9996","PERIAPSIS":"417.955","COUNTRY_CODE":"US","RCS_SIZE":"LARGE","CLASSIFICATION_TYPE":"U","FILE":"3561419","EPHEMERIS_TYPE":"0","BSTAR":"-0.02825100000000","GP_ID":"211923474","MEAN_ANOMALY":"100.0069","REF_FRAME":"TEME","OBJECT_ID":"2022-099P","MEAN_MOTION_DOT":"-0.01378249","DECAY_DATE":null,"OBJECT_NAME":"STARLINK-4433","ECCENTRICITY":"0.00019460","MEAN_MOTION":"15.49127828","TIME_SYSTEM":"UTC","SEMIMAJOR_AXIS":"6797.413","ELEMENT_SET_NO":"999","INCLINATION":"97.6556","MEAN_ELEMENT_THEORY":"SGP4","NORAD_CAT_ID":"53478","LAUNCH_DATE":"2022-08-12","EPOCH":"2022-09-06T22:00:00.999936","TLE_LINE2":"2 53478  97.6556   9.3172 0001946  72.2933 100.0069 15.49127828  1302","APOAPSIS":"420.601","RA_OF_ASC_NODE":"9.3172","SITE":"AFWTR","PERIOD":"92.956","CENTER_NAME":"EARTH","ARG_OF_PERICENTER":"72.2933","REV_AT_EPOCH":"130","MEAN_MOTION_DDOT":"0.0000000000000"},{"TIME_SYSTEM":"UTC","ELEMENT_SET_NO":"999","SEMIMAJOR_AXIS":"6795.161","MEAN_ELEMENT_THEORY":"SGP4","NORAD_CAT_ID":"53479","INCLINATION":"97.6557","OBJECT_NAME":"STARLINK-4436","MEAN_MOTION":"15.49897979","ECCENTRICITY":"0.00020520","RA_OF_ASC_NODE":"9.3153","ARG_OF_PERICENTER":"61.4504","REV_AT_EPOCH":"130","SITE":"AFWTR","CENTER_NAME":"EARTH","PERIOD":"92.909","MEAN_MOTION_DDOT":"0.0000000000000","EPOCH":"2022-09-06T22:00:00.999936","LAUNCH_DATE":"2022-08-12","TLE_LINE2":"2 53479  97.6557   9.3153 0002052  61.4504 118.3914 15.49897979  1308","APOAPSIS":"418.421","RCS_SIZE":"LARGE","FILE":"3561419","CLASSIFICATION_TYPE":"U","OBJECT_TYPE":"PAYLOAD","PERIAPSIS":"415.632","TLE_LINE1":"1 53479U 22099Q   22249.91667824 -.01249246  00000-0 -24664-1 0  9995","COUNTRY_CODE":"US","REF_FRAME":"TEME","MEAN_MOTION_DOT":"-0.01249246","OBJECT_ID":"2022-099Q","DECAY_DATE":null,"EPHEMERIS_TYPE":"0","GP_ID":"211924196","BSTAR":"-0.02466400000000","MEAN_ANOMALY":"118.3914"},{"COUNTRY_CODE":"US","PERIAPSIS":"416.665","TLE_LINE1":"1 53480U 22099R   22249.91667824 -.01315233  00000-0 -26422-1 0  9991","OBJECT_TYPE":"PAYLOAD","FILE":"3561419","CLASSIFICATION_TYPE":"U","RCS_SIZE":"LARGE","MEAN_ANOMALY":"115.8859","GP_ID":"211923629","BSTAR":"-0.02642200000000","EPHEMERIS_TYPE":"0","DECAY_DATE":null,"MEAN_MOTION_DOT":"-0.01315233","OBJECT_ID":"2022-099R","REF_FRAME":"TEME","MEAN_MOTION":"15.49554878","ECCENTRICITY":"0.00020070","OBJECT_NAME":"STARLINK-4442","MEAN_ELEMENT_THEORY":"SGP4","NORAD_CAT_ID":"53480","INCLINATION":"97.6558","SEMIMAJOR_AXIS":"6796.164","ELEMENT_SET_NO":"999","TIME_SYSTEM":"UTC","APOAPSIS":"419.393","TLE_LINE2":"2 53480  97.6558   9.3160 0002007  60.4401 115.8859 15.49554878  1302","LAUNCH_DATE":"2022-08-12","EPOCH":"2022-09-06T22:00:00.999936","MEAN_MOTION_DDOT":"0.0000000000000","ARG_OF_PERICENTER":"60.4401","REV_AT_EPOCH":"130","CENTER_NAME":"EARTH","SITE":"AFWTR","PERIOD":"92.930","RA_OF_ASC_NODE":"9.3160"},{"RCS_SIZE":"LARGE","CLASSIFICATION_TYPE":"U","FILE":"3561419","COUNTRY_CODE":"US","OBJECT_TYPE":"PAYLOAD","TLE_LINE1":"1 53481U 22099S   22249.91667824 -.01222832  00000-0 -23930-1 0  9995","PERIAPSIS":"415.075","OBJECT_ID":"2022-099S","MEAN_MOTION_DOT":"-0.01222832","DECAY_DATE":null,"REF_FRAME":"TEME","MEAN_ANOMALY":"119.5970","EPHEMERIS_TYPE":"0","BSTAR":"-0.02393000000000","GP_ID":"211924351","INCLINATION":"97.6557","NORAD_CAT_ID":"53481","MEAN_ELEMENT_THEORY":"SGP4","TIME_SYSTEM":"UTC","ELEMENT_SET_NO":"999","SEMIMAJOR_AXIS":"6794.604","ECCENTRICITY":"0.00020510","MEAN_MOTION":"15.50088772","OBJECT_NAME":"STARLINK-4302","SITE":"AFWTR","CENTER_NAME":"EARTH","PERIOD":"92.898","ARG_OF_PERICENTER":"62.3342","REV_AT_EPOCH":"130","MEAN_MOTION_DDOT":"0.0000000000000","RA_OF_ASC_NODE":"9.3154","APOAPSIS":"417.862","LAUNCH_DATE":"2022-08-12","EPOCH":"2022-09-06T22:00:00.999936","TLE_LINE2":"2 53481  97.6557   9.3154 0002051  62.3342 119.5970 15.50088772  1301"},{"MEAN_MOTION":"15.50114386","ECCENTRICITY":"0.00020550","OBJECT_NAME":"STARLINK-4360","MEAN_ELEMENT_THEORY":"SGP4","NORAD_CAT_ID":"53482","INCLINATION":"97.6556","TIME_SYSTEM":"UTC","ELEMENT_SET_NO":"999","SEMIMAJOR_AXIS":"6794.529","APOAPSIS":"417.790","EPOCH":"2022-09-06T22:00:00.999936","LAUNCH_DATE":"2022-08-12","TLE_LINE2":"2 53482  97.6556   9.3144 0002055  60.2471 120.7704 15.50114386  1304","ARG_OF_PERICENTER":"60.2471","REV_AT_EPOCH":"130","SITE":"AFWTR","CENTER_NAME":"EARTH","PERIOD":"92.896","MEAN_MOTION_DDOT":"0.0000000000000","RA_OF_ASC_NODE":"9.3144","COUNTRY_CODE":"US","OBJECT_TYPE":"PAYLOAD","PERIAPSIS":"414.998","TLE_LINE1":"1 53482U 22099T   22249.91667824 -.01308235  00000-0 -25751-1 0  9991","RCS_SIZE":"LARGE","FILE":"3561419","CLASSIFICATION_TYPE":"U","MEAN_ANOMALY":"120.7704","EPHEMERIS_TYPE":"0","GP_ID":"211923888","BSTAR":"-0.02575100000000","MEAN_MOTION_DOT":"-0.01308235","OBJECT_ID":"2022-099T","DECAY_DATE":null,"REF_FRAME":"TEME"},{"APOAPSIS":"416.692","TLE_LINE2":"2 53483  97.6557   9.3129 0002017  64.7765 120.0435 15.50481362  1307","LAUNCH_DATE":"2022-08-12","EPOCH":"2022-09-06T22:00:00.999936","MEAN_MOTION_DDOT":"0.0000000000000","ARG_OF_PERICENTER":"64.7765","REV_AT_EPOCH":"130","SITE":"AFWTR","PERIOD":"92.874","CENTER_NAME":"EARTH","RA_OF_ASC_NODE":"9.3129","MEAN_MOTION":"15.50481362","ECCENTRICITY":"0.00020170","OBJECT_NAME":"STARLINK-4401","NORAD_CAT_ID":"53483","MEAN_ELEMENT_THEORY":"SGP4","INCLINATION":"97.6557","SEMIMAJOR_AXIS":"6793.457","ELEMENT_SET_NO":"999","TIME_SYSTEM":"UTC","MEAN_ANOMALY":"120.0435","GP_ID":"211924402","BSTAR":"-0.02649900000000","EPHEMERIS_TYPE":"0","DECAY_DATE":null,"MEAN_MOTION_DOT":"-0.01358460","OBJECT_ID":"2022-099U","REF_FRAME":"TEME","COUNTRY_CODE":"US","PERIAPSIS":"413.951","TLE_LINE1":"1 53483U 22099U   22249.91667824 -.01358460  00000-0 -26499-1 0  9997","OBJECT_TYPE":"PAYLOAD","FILE":"3561419","CLASSIFICATION_TYPE":"U","RCS_SIZE":"LARGE"}];
